NETSAT-1                
1 46506U 20068W   26087.49190310  .00016986  00000+0  54128-3 0  9999
2 46506  97.8753  82.9792 0003359 303.1719  56.9199 15.32619119302937
NETSAT-2                
1 46507U 20068X   26087.55734511  .00027255  00000+0  62956-3 0  9993
2 46507  97.8653  89.1317 0001763 290.7807  69.3250 15.42501174303293
GREENCUBE (IO-117)      
1 53109U 22080E   26087.09772905 -.00000003  00000+0  00000+0 0  9994
2 53109  70.1559 326.4570 0008898 308.0956  51.8901  6.42583216 86856
SITRO-AIS 5 (KATYS)     
1 57176U 23091L   26087.54865666  .00014622  00000+0  54339-3 0  9991
2 57176  97.5146 150.7642 0012224  34.9883 325.2156 15.27574931152029
SITRO-AIS 6 (CHIRKIN)   
1 57192U 23091AC  26087.55120265  .00007857  00000+0  31996-3 0  9995
2 57192  97.5152 150.2836 0013129  37.3275 322.8872 15.24689576151993
SITRO-AIS 8 (ANOKHIN)   
1 57193U 23091AD  26087.56759916  .00017788  00000+0  61446-3 0  9995
2 57193  97.5139 152.0654 0011274  32.3502 327.8428 15.29937604152114
SITRO-AIS 7 (FARTUSHNIY)
1 57194U 23091AE  26087.60459298  .00007700  00000+0  31616-3 0  9990
2 57194  97.5150 150.2005 0013020  38.0233 322.1920 15.24421033151992
SITRO-AIS 10 (BURDAEV)  
1 57199U 23091AK  26087.59033056  .00023827  00000+0  69031-3 0  9993
2 57199  97.5154 156.3699 0006558  14.1131 346.0294 15.35545239152387
SITRO-AIS 9 (SHCHUKIN)  
1 57201U 23091AM  26087.59329007  .00023445  00000+0  68788-3 0  9995
2 57201  97.5152 156.1606 0006822  13.3625 346.7798 15.35149199152378
SITRO-AIS 12 (SMIRENNIY)
1 57204U 23091AQ  26087.59852483  .00023074  00000+0  67166-3 0  9994
2 57204  97.5164 156.5848 0006287   7.0419 353.0912 15.35404780152393
SITRO-AIS 11 (SHEFFER)  
1 57208U 23091AU  26087.56737008  .00024862  00000+0  71506-3 0  9999
2 57208  97.5161 156.7529 0006216   7.6192 352.5145 15.35767715152402
SITRO-AIS 25            
1 59066U 24039R   26087.62400778  .00004645  00000+0  36908-3 0  9998
2 59066  95.3931 179.7512 0144600 249.3399 109.2272 14.92794098112701
SITRO-AIS 26            
1 59067U 24039S   26087.61478867  .00005153  00000+0  41095-3 0  9990
2 59067  95.3933 179.6583 0144832 249.8527 108.7068 14.92604480112696
SITRO-AIS 27            
1 59068U 24039T   26087.60711351  .00005827  00000+0  46043-3 0  9994
2 59068  95.3934 179.8883 0143917 248.6341 109.9475 14.93003989112713
SITRO-AIS 28            
1 59071U 24039U   26087.58642351  .00005271  00000+0  41637-3 0  9995
2 59071  95.3929 179.9168 0143975 248.5809 110.0006 14.93034228112713
GRBBETA                 
1 60237U 24128C   26087.49863764  .00003880  00000+0  27254-3 0  9996
2 60237  61.9894 139.2229 0049674 117.7050 242.9095 15.05982211 94116
