[{"OBJECT_NAME":"NETSAT-1","OBJECT_ID":"2020-068W","EPOCH":"2026-03-28T11:48:20.427840","MEAN_MOTION":15.32619119,"ECCENTRICITY":0.0003359,"INCLINATION":97.8753,"RA_OF_ASC_NODE":82.9792,"ARG_OF_PERICENTER":303.1719,"MEAN_ANOMALY":56.9199,"EPHEMERIS_TYPE":0,"CLASSIFICATION_TYPE":"U","NORAD_CAT_ID":46506,"ELEMENT_SET_NO":999,"REV_AT_EPOCH":30293,"BSTAR":0.00054128,"MEAN_MOTION_DOT":0.00016986,"MEAN_MOTION_DDOT":0},{"OBJECT_NAME":"NETSAT-2","OBJECT_ID":"2020-068X","EPOCH":"2026-03-28T13:22:34.617504","MEAN_MOTION":15.42501174,"ECCENTRICITY":0.00017632,"INCLINATION":97.8653,"RA_OF_ASC_NODE":89.1317,"ARG_OF_PERICENTER":290.7807,"MEAN_ANOMALY":69.325,"EPHEMERIS_TYPE":0,"CLASSIFICATION_TYPE":"U","NORAD_CAT_ID":46507,"ELEMENT_SET_NO":999,"REV_AT_EPOCH":30329,"BSTAR":0.00062955552,"MEAN_MOTION_DOT":0.00027255,"MEAN_MOTION_DDOT":0},{"OBJECT_NAME":"GREENCUBE (IO-117)","OBJECT_ID":"2022-080E","EPOCH":"2026-03-28T02:20:43.789920","MEAN_MOTION":6.42583216,"ECCENTRICITY":0.00088986,"INCLINATION":70.1559,"RA_OF_ASC_NODE":326.457,"ARG_OF_PERICENTER":308.0956,"MEAN_ANOMALY":51.8901,"EPHEMERIS_TYPE":0,"CLASSIFICATION_TYPE":"U","NORAD_CAT_ID":53109,"ELEMENT_SET_NO":999,"REV_AT_EPOCH":8685,"BSTAR":0,"MEAN_MOTION_DOT":-3.0e-8,"MEAN_MOTION_DDOT":0},{"OBJECT_NAME":"SITRO-AIS 5 (KATYS)","OBJECT_ID":"2023-091L","EPOCH":"2026-03-28T13:10:03.935424","MEAN_MOTION":15.27574931,"ECCENTRICITY":0.00122249,"INCLINATION":97.5146,"RA_OF_ASC_NODE":150.7642,"ARG_OF_PERICENTER":34.9883,"MEAN_ANOMALY":325.2156,"EPHEMERIS_TYPE":0,"CLASSIFICATION_TYPE":"U","NORAD_CAT_ID":57176,"ELEMENT_SET_NO":999,"REV_AT_EPOCH":15202,"BSTAR":0.00054339452,"MEAN_MOTION_DOT":0.00014622,"MEAN_MOTION_DDOT":0},{"OBJECT_NAME":"SITRO-AIS 6 (CHIRKIN)","OBJECT_ID":"2023-091AC","EPOCH":"2026-03-28T13:13:43.908960","MEAN_MOTION":15.24689576,"ECCENTRICITY":0.0013129,"INCLINATION":97.5152,"RA_OF_ASC_NODE":150.2836,"ARG_OF_PERICENTER":37.3275,"MEAN_ANOMALY":322.8872,"EPHEMERIS_TYPE":0,"CLASSIFICATION_TYPE":"U","NORAD_CAT_ID":57192,"ELEMENT_SET_NO":999,"REV_AT_EPOCH":15199,"BSTAR":0.00031996289,"MEAN_MOTION_DOT":7.857e-5,"MEAN_MOTION_DDOT":0},{"OBJECT_NAME":"SITRO-AIS 8 (ANOKHIN)","OBJECT_ID":"2023-091AD","EPOCH":"2026-03-28T13:37:20.567424","MEAN_MOTION":15.29937604,"ECCENTRICITY":0.00112742,"INCLINATION":97.5139,"RA_OF_ASC_NODE":152.0654,"ARG_OF_PERICENTER":32.3502,"MEAN_ANOMALY":327.8428,"EPHEMERIS_TYPE":0,"CLASSIFICATION_TYPE":"U","NORAD_CAT_ID":57193,"ELEMENT_SET_NO":999,"REV_AT_EPOCH":15211,"BSTAR":0.00061446112,"MEAN_MOTION_DOT":0.00017788,"MEAN_MOTION_DDOT":0},{"OBJECT_NAME":"SITRO-AIS 7 (FARTUSHNIY)","OBJECT_ID":"2023-091AE","EPOCH":"2026-03-28T14:30:36.833472","MEAN_MOTION":15.24421033,"ECCENTRICITY":0.00130207,"INCLINATION":97.515,"RA_OF_ASC_NODE":150.2005,"ARG_OF_PERICENTER":38.0233,"MEAN_ANOMALY":322.192,"EPHEMERIS_TYPE":0,"CLASSIFICATION_TYPE":"U","NORAD_CAT_ID":57194,"ELEMENT_SET_NO":999,"REV_AT_EPOCH":15199,"BSTAR":0.00031615951,"MEAN_MOTION_DOT":7.7e-5,"MEAN_MOTION_DDOT":0},{"OBJECT_NAME":"SITRO-AIS 10 (BURDAEV)","OBJECT_ID":"2023-091AK","EPOCH":"2026-03-28T14:10:04.560384","MEAN_MOTION":15.35545239,"ECCENTRICITY":0.00065589,"INCLINATION":97.5154,"RA_OF_ASC_NODE":156.3699,"ARG_OF_PERICENTER":14.1131,"MEAN_ANOMALY":346.0294,"EPHEMERIS_TYPE":0,"CLASSIFICATION_TYPE":"U","NORAD_CAT_ID":57199,"ELEMENT_SET_NO":999,"REV_AT_EPOCH":15238,"BSTAR":0.00069031332,"MEAN_MOTION_DOT":0.00023827,"MEAN_MOTION_DDOT":0},{"OBJECT_NAME":"SITRO-AIS 9 (SHCHUKIN)","OBJECT_ID":"2023-091AM","EPOCH":"2026-03-28T14:14:20.262048","MEAN_MOTION":15.35149199,"ECCENTRICITY":0.00068227,"INCLINATION":97.5152,"RA_OF_ASC_NODE":156.1606,"ARG_OF_PERICENTER":13.3625,"MEAN_ANOMALY":346.7798,"EPHEMERIS_TYPE":0,"CLASSIFICATION_TYPE":"U","NORAD_CAT_ID":57201,"ELEMENT_SET_NO":999,"REV_AT_EPOCH":15237,"BSTAR":0.00068788372,"MEAN_MOTION_DOT":0.00023445,"MEAN_MOTION_DDOT":0},{"OBJECT_NAME":"SITRO-AIS 12 (SMIRENNIY)","OBJECT_ID":"2023-091AQ","EPOCH":"2026-03-28T14:21:52.545312","MEAN_MOTION":15.3540478,"ECCENTRICITY":0.00062874,"INCLINATION":97.5164,"RA_OF_ASC_NODE":156.5848,"ARG_OF_PERICENTER":7.0419,"MEAN_ANOMALY":353.0912,"EPHEMERIS_TYPE":0,"CLASSIFICATION_TYPE":"U","NORAD_CAT_ID":57204,"ELEMENT_SET_NO":999,"REV_AT_EPOCH":15239,"BSTAR":0.00067166244,"MEAN_MOTION_DOT":0.00023074,"MEAN_MOTION_DDOT":0},{"OBJECT_NAME":"SITRO-AIS 11 (SHEFFER)","OBJECT_ID":"2023-091AU","EPOCH":"2026-03-28T13:37:00.774912","MEAN_MOTION":15.35767715,"ECCENTRICITY":0.00062162,"INCLINATION":97.5161,"RA_OF_ASC_NODE":156.7529,"ARG_OF_PERICENTER":7.6192,"MEAN_ANOMALY":352.5145,"EPHEMERIS_TYPE":0,"CLASSIFICATION_TYPE":"U","NORAD_CAT_ID":57208,"ELEMENT_SET_NO":999,"REV_AT_EPOCH":15240,"BSTAR":0.00071506158,"MEAN_MOTION_DOT":0.00024862,"MEAN_MOTION_DDOT":0},{"OBJECT_NAME":"SITRO-AIS 25","OBJECT_ID":"2024-039R","EPOCH":"2026-03-28T14:58:34.272192","MEAN_MOTION":14.92794098,"ECCENTRICITY":0.01446001,"INCLINATION":95.3931,"RA_OF_ASC_NODE":179.7512,"ARG_OF_PERICENTER":249.3399,"MEAN_ANOMALY":109.2272,"EPHEMERIS_TYPE":0,"CLASSIFICATION_TYPE":"U","NORAD_CAT_ID":59066,"ELEMENT_SET_NO":999,"REV_AT_EPOCH":11270,"BSTAR":0.00036908381,"MEAN_MOTION_DOT":4.645e-5,"MEAN_MOTION_DDOT":0},{"OBJECT_NAME":"SITRO-AIS 26","OBJECT_ID":"2024-039S","EPOCH":"2026-03-28T14:45:17.741088","MEAN_MOTION":14.9260448,"ECCENTRICITY":0.01448329,"INCLINATION":95.3933,"RA_OF_ASC_NODE":179.6583,"ARG_OF_PERICENTER":249.8527,"MEAN_ANOMALY":108.7068,"EPHEMERIS_TYPE":0,"CLASSIFICATION_TYPE":"U","NORAD_CAT_ID":59067,"ELEMENT_SET_NO":999,"REV_AT_EPOCH":11269,"BSTAR":0.00041094616,"MEAN_MOTION_DOT":5.153e-5,"MEAN_MOTION_DDOT":0},{"OBJECT_NAME":"SITRO-AIS 27","OBJECT_ID":"2024-039T","EPOCH":"2026-03-28T14:34:14.607264","MEAN_MOTION":14.93003989,"ECCENTRICITY":0.01439176,"INCLINATION":95.3934,"RA_OF_ASC_NODE":179.8883,"ARG_OF_PERICENTER":248.6341,"MEAN_ANOMALY":109.9475,"EPHEMERIS_TYPE":0,"CLASSIFICATION_TYPE":"U","NORAD_CAT_ID":59068,"ELEMENT_SET_NO":999,"REV_AT_EPOCH":11271,"BSTAR":0.00046043024,"MEAN_MOTION_DOT":5.827e-5,"MEAN_MOTION_DDOT":0},{"OBJECT_NAME":"SITRO-AIS 28","OBJECT_ID":"2024-039U","EPOCH":"2026-03-28T14:04:26.991264","MEAN_MOTION":14.93034228,"ECCENTRICITY":0.01439756,"INCLINATION":95.3929,"RA_OF_ASC_NODE":179.9168,"ARG_OF_PERICENTER":248.5809,"MEAN_ANOMALY":110.0006,"EPHEMERIS_TYPE":0,"CLASSIFICATION_TYPE":"U","NORAD_CAT_ID":59071,"ELEMENT_SET_NO":999,"REV_AT_EPOCH":11271,"BSTAR":0.00041636691,"MEAN_MOTION_DOT":5.271e-5,"MEAN_MOTION_DDOT":0},{"OBJECT_NAME":"GRBBETA","OBJECT_ID":"2024-128C","EPOCH":"2026-03-28T11:58:02.292096","MEAN_MOTION":15.05982211,"ECCENTRICITY":0.0049674,"INCLINATION":61.9894,"RA_OF_ASC_NODE":139.2229,"ARG_OF_PERICENTER":117.705,"MEAN_ANOMALY":242.9095,"EPHEMERIS_TYPE":0,"CLASSIFICATION_TYPE":"U","NORAD_CAT_ID":60237,"ELEMENT_SET_NO":999,"REV_AT_EPOCH":9411,"BSTAR":0.00027254,"MEAN_MOTION_DOT":3.88e-5,"MEAN_MOTION_DDOT":0}]
